NORAD_CAT_ID,OBJECT_NAME,OBJECT_TYPE,EPOCH,MEAN_MOTION,ECCENTRICITY,INCLINATION,RA_OF_ASC_NODE,ARG_OF_PERICENTER,MEAN_ANOMALY,BSTAR,MEAN_MOTION_DOT,MEAN_MOTION_DDOT,TLE_LINE0,TLE_LINE1,TLE_LINE2,SEMIMAJOR_AXIS,PERIOD,APOGEE,PERIGEE,DECAYED
52305.0,STARLINK-3724,PAYLOAD,2022-09-07 22:00:00,15.08816378,0.000135,53.2193,79.7539,62.5584,80.6773,0.0020724,0.00032827,0.0,0 STARLINK-3724,1 52305U 22041AW  22250.91667824  .00032827  00000-0  20724-2 0  9997,2 52305  53.2193  79.7539 0001350  62.5584  80.6773 15.08816378  1301,6917.953,95.439,540.752,538.884,0.0
52305.0,STARLINK-3724,PAYLOAD,2022-09-08 14:00:01,15.08855665,0.0001249,53.2191,76.7597,74.1449,92.2663,-0.00031372,-5.279e-05,0.0,0 STARLINK-3724,1 52305U 22041AW  22251.58334491 -.00005279  00000-0 -31372-3 0  9997,2 52305  53.2191  76.7597 0001249  74.1449  92.2663 15.08855665  1305,6917.833000000001,95.437,540.562,538.8330000000002,0.0
52305.0,STARLINK-3724,PAYLOAD,2022-09-08 22:00:00,15.0883351,0.0001343,53.2188,75.2648,63.1735,114.8559,0.0023986999999999,0.00038087,0.0,0 STARLINK-3724,1 52305U 22041AW  22251.91667824  .00038087  00000-0  23987-2 0  9996,2 52305  53.2188  75.2648 0001343  63.1735 114.8559 15.08833510  1303,6917.9,95.438,540.694,538.836,0.0
52305.0,STARLINK-3724,PAYLOAD,2022-09-09 14:00:01,15.08851087,0.000137,53.2186,72.2706,75.5812,125.6547,-0.00051529,-8.482e-05,0.0,0 STARLINK-3724,1 52305U 22041AW  22252.58334491 -.00008482  00000-0 -51529-3 0  9993,2 52305  53.2186  72.2706 0001370  75.5812 125.6547 15.08851087  1302,6917.847,95.437,540.659,538.764,0.0
52305.0,STARLINK-3724,PAYLOAD,2022-09-09 22:00:00,15.088235699999998,0.0001425,53.2184,70.7756,64.6046,148.2413,0.0029976,0.0004772,0.0,0 STARLINK-3724,1 52305U 22041AW  22252.91667824  .00047720  00000-0  29976-2 0  9995,2 52305  53.2184  70.7756 0001425  64.6046 148.2413 15.08823570  1306,6917.931,95.439,540.781,538.81,0.0
52305.0,STARLINK-3724,PAYLOAD,2022-09-10 14:00:01,15.08844641,0.000127,53.2183,67.7813,72.6661,163.3674,-0.00065877,-0.00010758,0.0,0 STARLINK-3724,1 52305U 22041AW  22253.58334491 -.00010758  00000-0 -65877-3 0  9994,2 52305  53.2183  67.7813 0001270  72.6661 163.3674 15.08844641  1304,6917.866,95.437,540.61,538.8530000000002,0.0
52305.0,STARLINK-3724,PAYLOAD,2022-09-10 22:00:00,15.08813132,0.0001357,53.2183,66.2863,61.4513,186.178,0.003247,0.00051729,0.0,0 STARLINK-3724,1 52305U 22041AW  22253.91667824  .00051729  00000-0  32470-2 0  9993,2 52305  53.2183  66.2863 0001357  61.4513 186.1780 15.08813132 23138,6917.9630000000025,95.439,540.766,538.889,0.0
52305.0,STARLINK-3724,PAYLOAD,2022-09-11 14:00:01,15.08879099,0.0001258,53.2186,63.292,69.0221,201.7947,-0.0036201,-0.00057503,0.0,0 STARLINK-3724,1 52305U 22041AW  22254.58334491 -.00057503  00000-0 -36201-2 0  9992,2 52305  53.2186  63.2920 0001258  69.0221 201.7947 15.08879099 23236,6917.761,95.435,540.496,538.756,0.0
52305.0,STARLINK-3724,PAYLOAD,2022-09-11 22:00:00,15.08813042,0.0001308,53.2187,61.797,56.6131,225.827,0.0034708,0.00055343,0.0,0 STARLINK-3724,1 52305U 22041AW  22254.91667824  .00055343  00000-0  34708-2 0  9996,2 52305  53.2187  61.7970 0001308  56.6131 225.8270 15.08813042  1309,6917.9630000000025,95.439,540.7330000000002,538.923,0.0
52305.0,STARLINK-3724,PAYLOAD,2022-09-12 06:00:00,15.08843737,0.0001226,53.2191,60.2988,64.2586,229.7699,-0.0010735,-0.00017333,0.0,0 STARLINK-3724,1 52305U 22041AW  22255.25001157 -.00017333  00000-0 -10735-2 0  9998,2 52305  53.2191  60.2988 0001226  64.2586 229.7699 15.08843737 23334,6917.869000000002,95.437,540.582,538.886,0.0
52305.0,STARLINK-3724,PAYLOAD,2022-09-12 14:00:01,15.08842725,0.0001373,53.2193,58.8029,66.0587,239.5619,-0.00083763,-0.00013595,0.0,0 STARLINK-3724,1 52305U 22041AW  22255.58334491 -.00013595  00000-0 -83763-3 0  9992,2 52305  53.2193  58.8029 0001373  66.0587 239.5619 15.08842725  1309,6917.871999999999,95.437,540.687,538.7869999999998,0.0
52305.0,STARLINK-3724,PAYLOAD,2022-09-12 22:00:00,15.08818445,0.0001471,53.2194,57.3079,56.9689,260.2484,0.0035321,0.00056342,0.0,0 STARLINK-3724,1 52305U 22041AW  22255.91667824  .00056342  00000-0  35321-2 0  9999,2 52305  53.2194  57.3079 0001471  56.9689 260.2484 15.08818445  1302,6917.946,95.439,540.8290000000002,538.794,0.0
52305.0,STARLINK-3724,PAYLOAD,2022-09-13 14:00:01,15.08851004,0.0001494,53.2201,54.3141,64.3928,276.0209,-0.00082682,-0.00013427,0.0,0 STARLINK-3724,1 52305U 22041AW  22256.58334491 -.00013427  00000-0 -82682-3 0  9996,2 52305  53.2201  54.3141 0001494  64.3928 276.0209 15.08851004  1300,6917.847,95.437,540.745,538.678,0.0
52305.0,STARLINK-3724,PAYLOAD,2022-09-13 16:00:00,15.08848987,0.0001563,53.2199,53.9407,61.628,11.6868,-0.00074785,-0.00012173,0.0,0 STARLINK-3724,1 52305U 22041AW  22256.66667824 -.00012173  00000-0 -74785-3 0  9996,2 52305  53.2199  53.9407 0001563  61.6280  11.6868 15.08848987 23555,6917.853,95.437,540.799,538.637,0.0
52305.0,STARLINK-3724,PAYLOAD,2022-09-13 22:00:00,15.08836191,0.000154,53.22,52.8191,56.5714,295.4346,0.00039925,6.071e-05,0.0,0 STARLINK-3724,1 52305U 22041AW  22256.91667824  .00006071  00000-0  39925-3 0  9999,2 52305  53.2200  52.8191 0001540  56.5714 295.4346 15.08836191  1302,6917.892,95.438,540.822,538.692,0.0
52305.0,STARLINK-3724,PAYLOAD,2022-09-14 14:00:01,15.08832486,0.0001363,53.2207,49.8258,60.3428,314.7786,-0.0012125,-0.00019529,0.0,0 STARLINK-3724,1 52305U 22041AW  22257.58334491 -.00019529  00000-0 -12125-2 0  9990,2 52305  53.2207  49.8258 0001363  60.3428 314.7786 15.08832486 23688,6917.903,95.438,540.711,538.825,0.0
52305.0,STARLINK-3724,PAYLOAD,2022-09-14 22:00:00,15.08811992,0.0001425,53.2204,48.3305,52.2325,334.4674,0.0025238,0.00040076,0.0,0 STARLINK-3724,1 52305U 22041AW  22257.91667824  .00040076  00000-0  25238-2 0  9994,2 52305  53.2204  48.3305 0001425  52.2325 334.4674 15.08811992  1306,6917.965999999999,95.439,540.817,538.845,0.0
52305.0,STARLINK-3724,PAYLOAD,2022-09-15 06:00:00,15.08815144,0.0001259,53.2206,46.8327,61.4361,336.8546,0.003217,0.00051248,0.0,0 STARLINK-3724,1 52305U 22041AW  22258.25001157  .00051248  00000-0  32170-2 0  9999,2 52305  53.2206  46.8327 0001259  61.4361 336.8546 15.08815144 23785,6917.956,95.439,540.692,538.95,0.0
52305.0,STARLINK-3724,PAYLOAD,2022-09-15 14:00:01,15.08865618,0.0001365,53.2208,45.3376,58.9873,350.8875,-0.0011138,-0.00017983,0.0,0 STARLINK-3724,1 52305U 22041AW  22258.58334491 -.00017983  00000-0 -11138-2 0  9996,2 52305  53.2208  45.3376 0001365  58.9873 350.8875 15.08865618  1308,6917.802,95.436,540.611,538.7230000000002,0.0
52305.0,STARLINK-3724,PAYLOAD,2022-09-15 20:08:21,15.08844718,0.0001368,53.2209,44.1889,56.223,303.8892,0.00013967,1.936e-05,0.0,0 STARLINK-3724,1 52305U 22041AW  22258.83913799  .00001936  00000-0  13967-3 0  9990,2 52305  53.2209  44.1889 0001368  56.2230 303.8892 15.08844718 22652,6917.866,95.437,540.677,538.785,0.0
52305.0,STARLINK-3724,PAYLOAD,2022-09-16 02:29:53,15.08842873,0.0001354,53.2213,42.9997,58.6978,301.4146,0.00029888,4.472e-05,0.0,0 STARLINK-3724,1 52305U 22041AW  22259.10409673  .00004472  00000-0  29888-3 0  9999,2 52305  53.2213  42.9997 0001354  58.6978 301.4146 15.08842873 23919,6917.871999999999,95.437,540.673,538.8,0.0
52305.0,STARLINK-3724,PAYLOAD,2022-09-16 10:26:50,15.08840612,0.0001459,53.2218,41.51300000000001,64.0795,296.0347,0.00028316,4.221e-05,0.0,0 STARLINK-3724,1 52305U 22041AW  22259.43530489  .00004221  00000-0  28316-3 0  9992,2 52305  53.2218  41.5130 0001459  64.0795 296.0347 15.08840612 22743,6917.879,95.438,540.753,538.734,0.0
52305.0,STARLINK-3724,PAYLOAD,2022-09-16 18:23:46,15.08839082,0.0001330999999999,53.2216,40.0267,52.8342,307.2772,0.00020794,3.023e-05,0.0,0 STARLINK-3724,1 52305U 22041AW  22259.76650501  .00003023  00000-0  20794-3 0  9997,2 52305  53.2216  40.0267 0001331  52.8342 307.2772 15.08839082 22799,6917.8830000000025,95.438,540.669,538.827,0.0
52305.0,STARLINK-3724,PAYLOAD,2022-09-17 10:17:38,15.0883612,0.0001381,53.2217,37.0534,57.6508,302.4618,1.109e-07,-2.86e-06,0.0,0 STARLINK-3724,1 52305U 22041AW  22260.42891237 -.00000286  00000-0  11090-6 0  9996,2 52305  53.2217  37.0534 0001381  57.6508 302.4618 15.08836120 22892,6917.892,95.438,540.7130000000002,538.802,0.0
52305.0,STARLINK-3724,PAYLOAD,2022-09-17 18:14:32,15.08845283,0.0001435,53.2208,35.566,60.3665,299.747,6.852199999999999e-05,8.03e-06,0.0,0 STARLINK-3724,1 52305U 22041AW  22260.76010412  .00000803  00000-0  68522-4 0  9995,2 52305  53.2208  35.5660 0001435  60.3665 299.7470 15.08845283 24166,6917.864000000001,95.437,540.722,538.737,0.0
52305.0,STARLINK-3724,PAYLOAD,2022-09-18 10:08:24,15.08842953,0.0001629,53.2217,32.593,62.0183,298.0974,1.7579000000000002e-05,-8e-08,0.0,0 STARLINK-3724,1 52305U 22041AW  22261.42250589 -.00000008  00000-0  17579-4 0  9994,2 52305  53.2217  32.5930 0001629  62.0183 298.0974 15.08842953 23040,6917.871,95.437,540.863,538.609,0.0
52305.0,STARLINK-3724,PAYLOAD,2022-09-18 16:29:56,15.08840059,0.0001525,53.2216,31.4035,55.8123,304.3013,0.00013679,1.89e-05,0.0,0 STARLINK-3724,1 52305U 22041AW  22261.68746467  .00001890  00000-0  13679-3 0  9992,2 52305  53.2216  31.4035 0001525  55.8123 304.3013 15.08840059 23086,6917.88,95.438,540.8,538.69,0.0
52305.0,STARLINK-3724,PAYLOAD,2022-09-19 02:02:15,15.08847529,0.0001557,53.2218,29.6196,61.4485,298.6664,0.00020373,2.957e-05,0.0,0 STARLINK-3724,1 52305U 22041AW  22262.08489745  .00002957  00000-0  20373-3 0  9994,2 52305  53.2218  29.6196 0001557  61.4485 298.6664 15.08847529 24362,6917.857,95.437,540.799,538.645,0.0
52305.0,STARLINK-3724,PAYLOAD,2022-09-19 08:23:47,15.08853483,0.0001621999999999,53.222,28.4312,56.2842,303.8305,3.8938e-05,3.32e-06,0.0,0 STARLINK-3724,1 52305U 22041AW  22262.34985807  .00000332  00000-0  38938-4 0  9995,2 52305  53.2220  28.4312 0001622  56.2842 303.8305 15.08853483 23180,6917.839,95.437,540.826,538.582,0.0
